IRIDIUM 133             
1 42955U 17061A   22071.72846662  .00000175  00000+0  55484-4 0  9995
2 42955  86.3975 316.1133 0002369  87.4430 272.7037 14.34219048231548
IRIDIUM 100             
1 42956U 17061B   22071.23372724  .00000183  00000+0  58246-4 0  9993
2 42956  86.3973 316.2754 0002117  82.3728 277.7708 14.34214878231470
IRIDIUM 122             
1 42957U 17061C   22071.41132442  .00000186  00000+0  59416-4 0  9998
2 42957  86.3972 316.1981 0002492  87.1980 272.9501 14.34221879231501
IRIDIUM 129             
1 42958U 17061D   22071.22737174  .00000181  00000+0  57395-4 0  9990
2 42958  86.3975 316.3255 0002390  88.0067 272.1402 14.34214175231495
IRIDIUM 119             
1 42959U 17061E   22071.19567137  .00000047  00000+0  97424-5 0  9996
2 42959  86.3975 316.3266 0002333  89.0396 271.1067 14.34213738231503
IRIDIUM 107             
1 42960U 17061F   22071.42399207  .00000187  00000+0  59571-4 0  9990
2 42960  86.3974 316.2427 0002169  84.7527 275.3916 14.34222450231541
IRIDIUM 132             
1 42961U 17061G   22071.43035071  .00000192  00000+0  61418-4 0  9997
2 42961  86.3974 316.2288 0002242  80.1487 279.9962 14.34220111231547
IRIDIUM 136             
1 42962U 17061H   22071.39229348  .00000195  00000+0  62719-4 0  9993
2 42962  86.3975 316.2456 0002309  91.5105 268.6355 14.34214095231559
IRIDIUM 139             
1 42963U 17061J   22071.39865206  .00000188  00000+0  60117-4 0  9995
2 42963  86.3976 316.2802 0002301  84.5391 275.6067 14.34219712231567
IRIDIUM 125             
1 42964U 17061K   22071.38597888  .00000188  00000+0  60146-4 0  9995
2 42964  86.3977 316.3182 0002258  83.3942 276.7510 14.34219680231571
QZS-4 (MICHIBIKI-4)     
1 42965U 17062A   22070.68533253 -.00000324  00000+0  00000+0 0  9996
2 42965  40.7891   3.3679 0749496 269.7646 281.9742  1.00280687 16185
SES-11 (ECHOSTAR 105)   
1 42967U 17063A   22071.55438378 -.00000092  00000+0  00000+0 0  9990
2 42967   0.0138 118.0284 0002905 217.0423 289.7118  1.00272250 16104
SENTINEL-5P             
1 42969U 17064A   22071.55653126  .00000030  00000+0  35134-4 0  9995
2 42969  98.7232  12.7121 0001010  91.0544 269.0748 14.19551926228575
KOREASAT 5A             
1 42984U 17067A   22071.56090986 -.00000361  00000+0  00000+0 0  9992
2 42984   0.0178 114.9624 0001623 226.3871 143.8901  1.00273575 15915
COSMOS 2523             
1 42986U 17037E   22071.55687991  .00000747  00000+0  84818-4 0  9999
2 42986  97.6704 127.0968 0078876  15.3749 344.9831 14.87069007236894
SKYSAT-C11              
1 42987U 17068A   22071.81421317  .00012733  00000+0  32099-3 0  9992
2 42987  97.2772 191.4000 0004324 102.2706 257.9024 15.39998599243535
SKYSAT-C10              
1 42988U 17068B   22071.57024140  .00013547  00000+0  33918-3 0  9994
2 42988  97.2819 191.3704 0006217  90.3678 269.8281 15.40183051243523
SKYSAT-C9               
1 42989U 17068C   22071.56162575  .00012896  00000+0  32391-3 0  9999
2 42989  97.2766 190.5887 0002514  12.6259 347.5050 15.40112490243714
SKYSAT-C8               
1 42990U 17068D   22071.55744072  .00013263  00000+0  33367-3 0  9991
2 42990  97.2825 191.7485 0001123  75.2923 284.8448 15.40058518243542
SKYSAT-C7               
1 42991U 17068E   22071.27535578  .00015573  00000+0  39058-3 0  9999
2 42991  97.2832 191.5348 0002322  96.3491 263.8020 15.40115547243508
SKYSAT-C6               
1 42992U 17068F   22071.59523538  .00013339  00000+0  33567-3 0  9995
2 42992  97.2852 192.1991 0002790 145.1901 214.9528 15.40047545243568
FLOCK 3M-4              
1 42997U 17068L   22071.80115615  .00031561  00000+0  11710-2 0  9999
2 42997  97.4506 185.9780 0013638  51.2313 309.0142 15.27445168242143
BEIDOU-3 M1             
1 43001U 17069A   22071.73117351  .00000011  00000+0  00000+0 0  9991
2 43001  55.4960 114.9290 0011217 286.2692 273.3863  1.86231550 29590
BEIDOU-3 M2             
1 43002U 17069B   22071.45793882  .00000007  00000+0  00000+0 0  9995
2 43002  55.4960 114.9730 0009186 305.1784 114.4349  1.86231326 29589
MOHAMMED VI-A           
1 43005U 17070A   22071.82349120  .00000414  00000+0  65815-4 0  9995
2 43005  97.9616 145.4714 0001526  87.6814 272.4561 14.77075055234081
FENGYUN 3D              
1 43010U 17072A   22071.83514505  .00000046  00000+0  43042-4 0  9994
2 43010  98.8062  16.9664 0002070 142.5500 217.5831 14.19185847224060
HEAD-1                  
1 43011U 17072B   22071.87798388  .00000226  00000+0  11254-3 0  9991
2 43011  98.8434  36.2121 0010567 355.0396   5.0687 14.26538860225156
NOAA 20                 
1 43013U 17073A   22071.80035049  .00000056  00000+0  47315-4 0  9994
2 43013  98.7484  11.7071 0001082  62.1591 297.9695 14.19532647223517
MIRATA                  
1 43015U 17073C   22071.27945501  .00007388  00000+0  54732-3 0  9995
2 43015  97.6846 330.2460 0244859 139.9431 222.0129 14.82438030232867
MAKERSAT 0              
1 43016U 17073D   22071.41612148  .00004848  00000+0  36574-3 0  9992
2 43016  97.6873 330.1444 0250298 143.0341 218.8417 14.81182963232828
RADFXSAT (FOX-1B)       
1 43017U 17073E   22071.41779882  .00003685  00000+0  28214-3 0  9992
2 43017  97.6865 329.5752 0252510 145.0867 216.7203 14.80510992232756
JILIN-01-04             
1 43022U 17074A   22071.85885699  .00002442  00000+0  15075-3 0  9992
2 43022  97.5103 165.2908 0006427 257.6048 242.2259 15.10824767237302
JILIN-01-05             
1 43023U 17074B   22071.87978132  .00002392  00000+0  14775-3 0  9990
2 43023  97.5102 165.4854 0006660 271.1053 226.7146 15.10821018237308
JILIN-01-06             
1 43024U 17074C   22071.10225991  .00000690  00000+0  45298-4 0  9999
2 43024  97.5095 164.6403 0009379 277.5364 200.9013 15.10845408237188
YAOGAN 30 D             
1 43028U 17075A   22071.79187316  .00001259  00000+0  13010-3 0  9995
2 43028  34.9977 300.2628 0000928 157.4696 202.6050 14.90230128234123
YAOGAN 30 E             
1 43029U 17075B   22071.76864534  .00001253  00000+0  12967-3 0  9991
2 43029  34.9971 299.9908 0004444  56.3345 303.7792 14.90202030234114
YAOGAN 30 F             
1 43030U 17075C   22071.74553960  .00001208  00000+0  12499-3 0  9999
2 43030  34.9984 299.9406 0004476 266.8641  93.1567 14.90217570234097
COSMOS 2524             
1 43032U 17076A   22071.80185897 -.00000056  00000+0  14115-4 0  9998
2 43032  67.1472  21.6865 0010567 266.8163  93.1716 13.97089342218093
LKW-1                   
1 43034U 17077A   22071.80946157  .00004257  00000+0  18195-3 0  9992
2 43034  97.3096 145.9650 0005160 160.8587 319.3903 15.23367806237592
ALCOMSAT 1              
1 43039U 17078A   22071.76945774 -.00000189  00000+0  00000+0 0  9990
2 43039   0.0265 175.3440 0001925 180.7233  66.5187  1.00270699 15664
AEROCUBE 7B (OCSD B)    
1 43042U 17071F   22071.58205106  .00068207  00000+0  82751-3 0  9996
2 43042  51.6337 176.6033 0002576 287.2442  72.8269 15.59972900240484
AEROCUBE 7C (OCSD C)    
1 43043U 17071G   22071.53780747  .00061395  00000+0  76546-3 0  9997
2 43043  51.6333 177.7786 0002734 282.6965  77.3722 15.59298497240434
LEMUR-2-KEVIN           
1 43046U 17071K   22071.38973532  .00901232  38243-3  19812-2 0  9998
2 43046  51.6147 127.5131 0008317  16.8894 343.2390 15.97476086241147
ASGARDIA 1              
1 43049U 17071N   22071.56043445  .00055525  00000+0  72687-3 0  9993
2 43049  51.6348 178.1127 0002473 313.8596  46.2192 15.58047980240431
PROPCUBE 2 (FAUNA)      
1 43052U 17071R   22071.53540653  .00067585  00000+0  79787-3 0  9994
2 43052  51.6319 171.9042 0002847 325.0379  35.0427 15.60690631240504
LEMUR-2-DUNLOP          
1 43053U 17071S   22071.33000571  .01301869  10714-2  14851-2 0  9996
2 43053  51.6160 127.5286 0009857  20.6309 339.5101 16.08580306241080
LEMUR-2-LIU-POU-CHUN    
1 43054U 17071T   22067.33964858  .15431095  12518-4  55689-3 0  9990
2 43054  51.6066 139.2293 0003296 268.6655  91.3996 16.44325644240573
GSAT0215 (GALILEO 19)   
1 43055U 17079A   22071.05091733  .00000047  00000+0  00000+0 0  9990
2 43055  55.8086 264.4032 0001770 349.7492  10.2610  1.70474302 26427
GSAT0216 (GALILEO 20)   
1 43056U 17079B   22070.75662740  .00000047  00000+0  00000+0 0  9999
2 43056  55.8091 264.4111 0002899 315.6453  44.3447  1.70474444 26438
GSAT0217 (GALILEO 21)   
1 43057U 17079C   22070.97684258  .00000047  00000+0  00000+0 0  9992
2 43057  55.8066 264.4049 0003159 335.2969  24.7016  1.70474363 26424
GSAT0218 (GALILEO 22)   
1 43058U 17079D   22070.61026298  .00000046  00000+0  00000+0 0  9997
2 43058  55.8076 264.4123 0003069 305.6467  54.3376  1.70474369 26449
GCOM-C (SHIKISAI)       
1 43065U 17082A   22071.80591207  .00000090  00000+0  54743-4 0  9995
2 43065  98.6552 146.0833 0001027  96.1193 264.0105 14.27261888219781
IRIDIUM 135             
1 43070U 17083A   22071.56937379  .00000097  00000+0  27545-4 0  9996
2 43070  86.3933 252.9103 0001706  86.6054 273.5337 14.34218306220896
IRIDIUM 138             
1 43071U 17083B   22071.52498228  .00000096  00000+0  27095-4 0  9997
2 43071  86.3922 252.7494 0002263  92.4033 267.7422 14.34218237220878
IRIDIUM 116             
1 43072U 17083C   22071.56303436  .00000094  00000+0  26670-4 0  9994
2 43072  86.3931 252.9172 0001908  98.6678 261.4734 14.34218564220917
IRIDIUM 130             
1 43073U 17083D   22071.53132644  .00000097  00000+0  27670-4 0  9997
2 43073  86.3939 253.0533 0002246  95.1326 265.0126 14.34217795220850
IRIDIUM 151             
1 43074U 17083E   22071.78501944  .00000104  00000+0  30120-4 0  9991
2 43074  86.3934 252.8464 0001999  99.1897 260.9525 14.34219466220918
IRIDIUM 134             
1 43075U 17083F   22071.54398627  .00000165  00000+0  51949-4 0  9997
2 43075  86.3933 252.9333 0002150  83.7613 276.3827 14.34217269220846
IRIDIUM 137             
1 43076U 17083G   22071.55667976  .00000075  00000+0  19625-4 0  9990
2 43076  86.3935 252.9919 0001936  99.8828 260.2586 14.34216952220916
